GPS BIIR-2  (PRN 13)    
1 24876U 97035A   17158.09645583  .00000024  00000-0  00000-0 0  9999
2 24876  55.5512 227.5078 0034556 106.0735 254.3837  2.00561887145625
GPS BIIR-3  (PRN 11)    
1 25933U 99055A   17158.70658567 -.00000077  00000-0  00000-0 0  9991
2 25933  51.6259  78.0539 0166126  94.4712 275.4391  2.00558378129464
GPS BIIR-4  (PRN 20)    
1 26360U 00025A   17158.77628282  .00000053  00000-0  00000-0 0  9996
2 26360  53.1172 155.2825 0040998  92.0149  71.0877  2.00561474125154
GPS BIIR-5  (PRN 28)    
1 26407U 00040A   17158.88992501 -.00000077  00000-0  00000-0 0  9992
2 26407  56.6370 345.5100 0199154 270.1220 256.2087  2.00567010123837
GPS BIIR-6  (PRN 14)    
1 26605U 00071A   17158.78706065  .00000033  00000-0  00000-0 0  9994
2 26605  55.1225 225.2158 0093942 248.3145 112.2708  2.00565451121430
GPS BIIR-7  (PRN 18)    
1 26690U 01004A   17158.84517188  .00000056  00000-0  00000-0 0  9993
2 26690  53.0391 158.2205 0183408 256.9234 254.9447  2.00570438119830
GPS BIIR-8  (PRN 16)    
1 27663U 03005A   17158.81678494 -.00000076  00000-0  00000-0 0  9995
2 27663  56.7059 345.2513 0092499  24.7193 207.0316  2.00560276105193
GPS BIIR-9  (PRN 21)    
1 27704U 03010A   17158.79110368 -.00000049  00000-0  00000-0 0  9995
2 27704  53.8533  98.6114 0242237 264.5542 268.8248  2.00563892103991
GPS BIIR-10 (PRN 22)    
1 28129U 03058A   17158.28581144  .00000059  00000-0  00000-0 0  9997
2 28129  52.9270 158.2345 0077480 261.5295  97.6088  2.00547305 98666
GPS BIIR-11 (PRN 19)    
1 28190U 04009A   17158.69709667 -.00000084  00000-0  00000-0 0  9998
2 28190  55.9989  46.2923 0100888  56.0111 242.0035  2.00564645 96869
GPS BIIR-12 (PRN 23)    
1 28361U 04023A   17158.81493491  .00000040  00000-0  00000-0 0  9994
2 28361  54.1084 220.3363 0119048 220.1512  73.6290  2.00555988 94922
GPS BIIR-13 (PRN 02)    
1 28474U 04045A   17158.65616737 -.00000050  00000-0  00000-0 0  9997
2 28474  54.2326  98.0838 0170425 247.2160 291.3407  2.00548673 92312
GPS BIIRM-1 (PRN 17)    
1 28874U 05038A   17158.69728498 -.00000083  00000-0  00000-0 0  9992
2 28874  56.1551  43.5526 0118445 254.5129  65.1394  2.00568144 85719
GPS BIIRM-2 (PRN 31)    
1 29486U 06042A   17158.74708448 -.00000065  00000-0  00000-0 0  9997
2 29486  55.4041 282.6664 0084721 343.9523 292.5011  2.00559110 78317
GPS BIIRM-3 (PRN 12)    
1 29601U 06052A   17158.80294402 -.00000077  00000-0  00000-0 0  9997
2 29601  56.6788 344.1713 0064837  49.4739 311.1080  2.00552381 77292
GPS BIIRM-4 (PRN 15)    
1 32260U 07047A   17158.63149209  .00000044  00000-0  00000-0 0  9995
2 32260  53.2346 216.7006 0090296  32.1998 328.4370  2.00547416 70731
GPS BIIRM-5 (PRN 29)    
1 32384U 07062A   17158.25343542 -.00000086  00000-0  00000-0 0  9990
2 32384  56.2190  44.1516 0006288   4.8066 221.6410  2.00570406 69447
GPS BIIRM-6 (PRN 07)    
1 32711U 08012A   17158.53147199 -.00000067  00000-0  00000-0 0  9990
2 32711  55.1325 282.0455 0107518 212.2220 147.1097  2.00556324 67656
GPS BIIRM-8 (PRN 05)    
1 35752U 09043A   17158.83049316  .00000061  00000-0  00000-0 0  9991
2 35752  54.2539 159.8965 0048813  28.4429 211.3284  2.00553249 57247
GPS BIIF-1  (PRN 25)    
1 36585U 10022A   17158.83985882 -.00000079  00000-0  00000-0 0  9992
2 36585  55.9862 340.9948 0063529  45.4334 307.9971  2.00574869 51473
GPS BIIF-2  (PRN 01)    
1 37753U 11036A   17158.76491479 -.00000043  00000-0  00000-0 0  9993
2 37753  55.4399 101.1511 0066064  30.2351 354.1459  2.00562329 43162
GPS BIIF-3  (PRN 24)    
1 38833U 12053A   17158.22233757 -.00000068  00000-0  00000-0 0  9994
2 38833  54.1608 278.9851 0055662  25.8668 334.4030  2.00561633 34213
GPS BIIF-4  (PRN 27)    
1 39166U 13023A   17158.57410775 -.00000084  00000-0  00000-0 0  9995
2 39166  55.8622  40.5756 0047723  18.0932 342.1244  2.00565160 29767
GPS BIIF-5  (PRN 30)    
1 39533U 14008A   17158.57889302 -.00000070  00000-0  00000-0 0  9998
2 39533  54.3148 284.2647 0028720 182.7141 177.2599  2.00563894 23581
GPS BIIF-6  (PRN 06)    
1 39741U 14026A   17158.35589876 -.00000045  00000-0  00000-0 0  9990
2 39741  55.4266 100.6875 0009820 291.5106  68.3476  2.00562305 22410
GPS BIIF-7  (PRN 09)    
1 40105U 14045A   17158.44839377  .00000039  00000-0  00000-0 0  9993
2 40105  54.6316 220.2526 0005046 122.2996 237.8345  2.00569799 19988
GPS BIIF-8  (PRN 03)    
1 40294U 14068A   17158.32165107  .00000067  00000-0  00000-0 0  9998
2 40294  55.0010 160.8904 0007277 345.8200  14.1830  2.00557566 19086
GPS BIIF-9  (PRN 26)    
1 40534U 15013A   17158.45738826 -.00000082  00000-0  00000-0 0  9992
2 40534  54.9414 340.1156 0018130 358.5984   1.4082  2.00559142 15706
GPS BIIF-10  (PRN 08)   
1 40730U 15033A   17158.11698121 -.00000088  00000-0  00000-0 0  9994
2 40730  55.3964  40.2690 0027158 318.4768  41.3632  2.00567652 13881
GPS BIIF-11  (PRN 10)   
1 41019U 15062A   17158.66980510  .00000065  00000-0  00000-0 0  9997
2 41019  55.0105 160.6642 0026476 206.0411 153.8470  2.00563614 11712
GPS BIIF-12  (PRN 32)   
1 41328U 16007A   17158.25873929  .00000038  00000-0  00000-0 0  9990
2 41328  54.8890 220.4463 0013973 220.4353 139.5450  2.00556764  9761
